OBJECT B                
1 51825U 22019B   26085.94397046  .00071390  00000+0  75979-3 0  9997
2 51825  97.3504 173.9740 0006130  77.4376 282.7568 15.63762911226869
